OBJECT_NAME,OBJECT_ID,EPOCH,MEAN_MOTION,ECCENTRICITY,INCLINATION,RA_OF_ASC_NODE,ARG_OF_PERICENTER,MEAN_ANOMALY,EPHEMERIS_TYPE,CLASSIFICATION_TYPE,NORAD_CAT_ID,ELEMENT_SET_NO,REV_AT_EPOCH,BSTAR,MEAN_MOTION_DOT,MEAN_MOTION_DDOT
AEHF-4 (USA 288),2018-079A,2026-06-17T19:29:39.346080,1.00272304,.0060392,1.4324,4.0475,356.0376,130.8730,0,U,43651,999,2830,0,-.281E-5,0
BEIDOU-3 G1,2018-085A,2026-06-17T18:51:42.984288,1.00270330,.0008051,2.8698,97.3493,349.6874,261.8796,0,U,43683,999,2806,0,-.116E-5,0
GSAT-29,2018-089A,2026-06-16T23:32:28.611744,1.00274142,.0003261,0.0121,5.2223,64.7926,243.4163,0,U,43698,999,2778,0,0,0
ES'HAIL 2,2018-090A,2026-06-17T19:23:54.604032,1.00270986,.0001649,0.0175,15.7240,108.2888,98.7998,0,U,43700,999,2768,0,.139E-5,0
GEO-KOMPSAT-2A,2018-100A,2026-06-17T20:25:21.565920,1.00269506,.000181,0.0511,159.8127,288.0823,252.8033,0,U,43823,999,2763,0,-.349E-5,0
GSAT-11,2018-100B,2026-06-17T20:09:53.051040,1.00271200,.00077,0.0318,244.4138,203.6441,194.4989,0,U,43824,999,2748,0,-.82E-6,0
GSAT-7A,2018-105A,2026-06-17T19:27:21.697056,1.00271125,.0001962,0.0180,77.8051,345.7346,197.1130,0,U,43864,999,2745,0,.21E-6,0
COSMOS 2533,2018-107A,2026-06-17T16:43:22.762272,1.00270501,.0000946,0.0491,89.9947,42.6956,94.0812,0,U,43867,999,2745,0,-.43E-6,0
TJS-3,2018-110A,2026-06-17T19:13:12.561312,1.00270373,.0002166,2.5471,80.4839,82.2220,179.8966,0,U,43874,999,2742,0,-.223E-5,0
ZHONGXING-2D,2019-001A,2026-06-17T20:25:51.519072,1.00271004,.0001414,0.0336,242.6206,92.7808,7.1798,0,U,43920,999,5408,0,-.342E-5,0
HELLAS-SAT 4 & SGS-1,2019-007A,2026-06-16T22:14:14.724384,1.00265019,.00051508,0.0755,127.9952,15.2732,134.5147,0,U,44034,999,2736,0,.15E-5,0
GSAT-31,2019-007B,2026-06-17T20:02:26.083104,1.00274680,.000168,0.0634,258.2248,106.0844,250.2347,0,U,44035,999,2697,0,.12E-5,0
NUSANTARA SATU,2019-009A,2026-06-17T17:05:00.396960,1.00270468,.0004334,0.0417,134.3452,345.3314,188.5465,0,U,44048,999,2677,0,-.24E-5,0
ZHONGXING-6C,2019-012A,2026-06-16T18:46:00.304608,1.00260150,.00131133,0.0751,72.3898,335.7082,268.8241,0,U,44067,999,2673,0,-.339E-5,0
WGS 10 (USA 291),2019-014A,2026-06-17T19:16:30.158112,1.00268869,.0000373,0.0180,23.7329,284.3671,307.3907,0,U,44071,999,2662,0,.42E-6,0
TIANLIAN 2-01,2019-017A,2026-06-17T20:10:45.467328,1.00270931,.0000736,0.5424,83.1141,33.8683,168.8052,0,U,44076,999,2665,0,-.112E-5,0
ARABSAT-6A,2019-021A,2026-06-16T18:17:30.331104,1.00261957,.00010348,0.0505,5.5983,332.7934,231.4495,0,U,44186,999,2615,0,.15E-5,0
BEIDOU-3 IGSO-1,2019-023A,2026-06-17T15:14:19.749120,1.00291188,.0025497,58.6955,37.6444,225.8169,349.0348,0,U,44204,999,721,0,-.222E-5,0
BEIDOU-2 G8,2019-027A,2026-06-17T20:29:58.623072,1.00270579,.0010191,1.6599,74.4865,281.8231,1.8271,0,U,44231,999,2608,0,-.253E-5,0
YAMAL 601,2019-031A,2026-06-17T20:07:33.516768,1.00271470,.0002384,0.0239,69.1392,20.8271,167.0086,0,U,44307,999,2593,0,.114E-5,0
AT&T T-16,2019-034A,2026-06-17T14:11:57.822144,1.00268538,.0000772,0.0252,66.2499,211.2042,100.5032,0,U,44333,999,2563,0,-.12E-5,0
EUTELSAT 7C,2019-034B,2026-06-17T19:50:42.208224,1.00270574,.0003044,0.0730,175.4115,254.5399,140.8048,0,U,44334,999,684,0,.43E-6,0
BEIDOU-3 IGSO-2,2019-035A,2026-06-14T14:58:00.763680,1.00267330,.0039904,55.2456,158.8849,216.4592,231.8306,0,U,44337,999,2564,0,-.71E-6,0
COSMOS 2539,2019-048A,2026-06-17T16:26:51.158976,1.00270013,.0000825,0.0381,88.9288,1.8028,73.8927,0,U,44457,999,2523,0,.75E-6,0
EDRS-C,2019-049A,2026-06-17T20:29:21.184224,1.00267612,.0000242,0.0118,31.9187,53.4977,270.5286,0,U,44475,999,2521,0,0,0
INTELSAT 39 (IS-39),2019-049B,2026-06-17T20:29:04.659360,1.00270858,.0000915,0.0162,356.9026,323.4763,314.9363,0,U,44476,999,2513,0,.28E-6,0
AMOS-17,2019-050A,2026-06-16T22:03:56.381184,1.00272916,.00016162,0.0148,340.4324,139.0917,133.6349,0,U,44479,999,2518,0,.106E-5,0
AEHF-5 (USA 292),2019-051A,2026-06-17T19:39:50.086944,1.00273519,.0066311,1.4535,336.2750,359.9907,317.8242,0,U,44481,999,2526,0,-.263E-5,0
EUTELSAT 5 WEST B,2019-067A,2026-06-17T19:47:20.032224,1.00272135,.0002951,0.0635,346.2699,98.1111,113.5537,0,U,44624,999,2444,0,-.47E-6,0
MEV-1,2019-067B,2026-06-16T22:18:40.152960,1.00269616,.00027946,0.8740,268.9828,179.8034,307.2103,0,U,44625,999,6174,0,-.149E-5,0
TJS-4,2019-070A,2026-06-16T15:07:18.468768,1.00268284,.0004446,0.0156,30.5389,10.1649,174.4757,0,U,44637,999,2453,0,-.17E-5,0
TIBA-1,2019-080A,2026-06-17T19:29:58.292736,1.00271121,.0001851,0.0541,14.2445,83.4452,136.3386,0,U,44800,999,2406,0,.15E-5,0
