AEHF-4 (USA 288)        
1 43651U 18079A   26168.81226095 -.00000281  00000+0  00000+0 0  9990
2 43651   1.4324   4.0475 0060392 356.0376 130.8730  1.00272304 28309
BEIDOU-3 G1             
1 43683U 18085A   26168.78591417 -.00000116  00000+0  00000+0 0  9998
2 43683   2.8698  97.3493 0008051 349.6874 261.8796  1.00270330 28060
GSAT-29                 
1 43698U 18089A   26167.98088671  .00000000  00000+0  00000+0 0  9993
2 43698   0.0121   5.2223 0003261  64.7926 243.4163  1.00274142 27784
ES'HAIL 2               
1 43700U 18090A   26168.80827088  .00000139  00000+0  00000+0 0  9997
2 43700   0.0175  15.7240 0001649 108.2888  98.7998  1.00270986 27689
GEO-KOMPSAT-2A          
1 43823U 18100A   26168.85094405 -.00000349  00000+0  00000+0 0  9993
2 43823   0.0511 159.8127 0001810 288.0823 252.8033  1.00269506 27633
GSAT-11                 
1 43824U 18100B   26168.84019735 -.00000082  00000+0  00000+0 0  9990
2 43824   0.0318 244.4138 0007700 203.6441 194.4989  1.00271200 27483
GSAT-7A                 
1 43864U 18105A   26168.81066779  .00000021  00000+0  00000+0 0  9998
2 43864   0.0180  77.8051 0001962 345.7346 197.1130  1.00271125 27453
COSMOS 2533             
1 43867U 18107A   26168.69679123 -.00000043  00000+0  00000+0 0  9997
2 43867   0.0491  89.9947 0000946  42.6956  94.0812  1.00270501 27459
TJS-3                   
1 43874U 18110A   26168.80083983 -.00000223  00000+0  00000+0 0  9995
2 43874   2.5471  80.4839 0002166  82.2220 179.8966  1.00270373 27424
ZHONGXING-2D            
1 43920U 19001A   26168.85129073 -.00000342  00000+0  00000+0 0  9995
2 43920   0.0336 242.6206 0001414  92.7808   7.1798  1.00271004 54082
HELLAS-SAT 4 & SGS-1    
1 44034U 19007A   26167.92655931  .00000150  00000+0  00000+0 0  9998
2 44034   0.0755 127.9952 0005150  15.2732 134.5147  1.00265019 27367
GSAT-31                 
1 44035U 19007B   26168.83502411  .00000120  00000+0  00000+0 0  9991
2 44035   0.0634 258.2248 0001680 106.0844 250.2347  1.00274680 26975
NUSANTARA SATU          
1 44048U 19009A   26168.71181015 -.00000240  00000+0  00000+0 0  9991
2 44048   0.0417 134.3452 0004334 345.3314 188.5465  1.00270468 26770
ZHONGXING-6C            
1 44067U 19012A   26167.78194797 -.00000339  00000+0  00000+0 0  9992
2 44067   0.0751  72.3898 0013113 335.7082 268.8241  1.00260150 26734
WGS 10 (USA 291)        
1 44071U 19014A   26168.80312683  .00000042  00000+0  00000+0 0  9999
2 44071   0.0180  23.7329 0000373 284.3671 307.3907  1.00268869 26622
TIANLIAN 2-01           
1 44076U 19017A   26168.84080402 -.00000112  00000+0  00000+0 0  9991
2 44076   0.5424  83.1141 0000736  33.8683 168.8052  1.00270931 26655
ARABSAT-6A              
1 44186U 19021A   26167.76215661  .00000150  00000+0  00000+0 0  9996
2 44186   0.0505   5.5983 0001034 332.7934 231.4495  1.00261957 26157
BEIDOU-3 IGSO-1         
1 44204U 19023A   26168.63495080 -.00000222  00000+0  00000+0 0  9992
2 44204  58.6955  37.6444 0025497 225.8169 349.0348  1.00291188  7213
BEIDOU-2 G8             
1 44231U 19027A   26168.85415073 -.00000253  00000+0  00000+0 0  9998
2 44231   1.6599  74.4865 0010191 281.8231   1.8271  1.00270579 26083
YAMAL 601               
1 44307U 19031A   26168.83858237  .00000114  00000+0  00000+0 0  9993
2 44307   0.0239  69.1392 0002384  20.8271 167.0086  1.00271470 25930
AT&T T-16               
1 44333U 19034A   26168.59164146 -.00000120  00000+0  00000+0 0  9995
2 44333   0.0252  66.2499 0000772 211.2042 100.5032  1.00268538 25632
EUTELSAT 7C             
1 44334U 19034B   26168.82687741  .00000043  00000+0  00000+0 0  9996
2 44334   0.0730 175.4115 0003044 254.5399 140.8048  1.00270574  6841
BEIDOU-3 IGSO-2         
1 44337U 19035A   26165.62361995 -.00000071  00000+0  00000+0 0  9997
2 44337  55.2456 158.8849 0039904 216.4592 231.8306  1.00267330 25649
COSMOS 2539             
1 44457U 19048A   26168.68531434  .00000075  00000+0  00000+0 0  9993
2 44457   0.0381  88.9288 0000825   1.8028  73.8927  1.00270013 25237
EDRS-C                  
1 44475U 19049A   26168.85371741  .00000000  00000+0  00000+0 0  9994
2 44475   0.0118  31.9187 0000242  53.4977 270.5286  1.00267612 25213
INTELSAT 39 (IS-39)     
1 44476U 19049B   26168.85352615  .00000028  00000+0  00000+0 0  9994
2 44476   0.0162 356.9026 0000915 323.4763 314.9363  1.00270858 25131
AMOS-17                 
1 44479U 19050A   26167.91940256  .00000106  00000+0  00000+0 0  9996
2 44479   0.0148 340.4324 0001616 139.0917 133.6349  1.00272916 25180
AEHF-5 (USA 292)        
1 44481U 19051A   26168.81932971 -.00000263  00000+0  00000+0 0  9990
2 44481   1.4535 336.2750 0066311 359.9907 317.8242  1.00273519 25266
EUTELSAT 5 WEST B       
1 44624U 19067A   26168.82453741 -.00000047  00000+0  00000+0 0  9990
2 44624   0.0635 346.2699 0002951  98.1111 113.5537  1.00272135 24443
MEV-1                   
1 44625U 19067B   26167.92963140 -.00000149  00000+0  00000+0 0  9993
2 44625   0.8740 268.9828 0002794 179.8034 307.2103  1.00269616 61744
TJS-4                   
1 44637U 19070A   26167.63007487 -.00000170  00000+0  00000+0 0  9995
2 44637   0.0156  30.5389 0004446  10.1649 174.4757  1.00268284 24535
TIBA-1                  
1 44800U 19080A   26168.81248024  .00000150  00000+0  00000+0 0  9990
2 44800   0.0541  14.2445 0001851  83.4452 136.3386  1.00271121 24066
